STARLINK-37052          
1 68179U 26050N   26092.13434874  .00286661  00000+0  14039-2 0  9994
2 68179  53.1583 164.2411 0001691  26.9541 333.1569 15.80939128  4180
STARLINK-37035          
1 68180U 26050P   26092.19681769  .00211692  00000+0  10465-2 0  9990
2 68180  53.1585 163.9194 0001343  66.0680 294.0484 15.80945932  4193
STARLINK-37032          
1 68181U 26050Q   26092.19606453  .00329487  00000+0  16015-2 0  9997
2 68181  53.1586 163.9145 0001232  84.7612 275.3551 15.80987275  4193
STARLINK-37082          
1 68182U 26050R   26092.13209634  .00211024  00000+0  10448-2 0  9993
2 68182  53.1586 164.2256 0001924  21.3545 338.7557 15.80913273  4187
STARLINK-37102          
1 68183U 26050S   26092.19456693  .00251695  00000+0  12368-2 0  9990
2 68183  53.1587 163.9043 0001335  84.4862 275.6313 15.80962222  4195
STARLINK-36964          
1 68184U 26050T   26092.19381699  .00207027  00000+0  10237-2 0  9997
2 68184  53.1588 163.8993 0001339  63.8456 296.2704 15.80953061  4198
STARLINK-37061          
1 68185U 26050U   26092.19306653  .00307637  00000+0  14992-2 0  9995
2 68185  53.1587 163.8943 0001023  61.5237 298.5889 15.80990736  4194
STARLINK-37079          
1 68186U 26050V   26092.19231759  .00243286  00000+0  11962-2 0  9993
2 68186  53.1588 163.8896 0001340  71.7596 288.3572 15.80973038  4198
STARLINK-37006          
1 68187U 26050W   26092.19156597  .00322182  00000+0  15664-2 0  9996
2 68187  53.1585 163.8843 0001591  73.5911 286.5286 15.81001851  4195
STARLINK-36340          
1 68188U 26050X   26092.19081725  .00251377  00000+0  12351-2 0  9994
2 68188  53.1588 163.8793 0001152  73.2876 286.8273 15.80966231  4092
STARLINK-36305          
1 68189U 26050Y   26092.19006692  .00278357  00000+0  13623-2 0  9995
2 68189  53.1586 163.8743 0001325  80.0215 280.0957 15.80977969  4096
STARLINK-37071          
1 68190U 26050Z   26092.18856405  .00234399  00000+0  11537-2 0  9991
2 68190  53.1588 163.8640 0001193  83.6426 276.4733 15.80975856  4197
