CCSDS_OMM_VERS = 2.0
CREATION_DATE  = 
ORIGINATOR     = 

OBJECT_NAME    = STARLINK-37052
OBJECT_ID      = 2026-050N
CENTER_NAME    = EARTH
REF_FRAME      = TEME
TIME_SYSTEM    = UTC
MEAN_ELEMENT_THEORY = SGP/SGP4

EPOCH          = 2026-04-02T03:13:27.731136
MEAN_MOTION    = 15.80939128
ECCENTRICITY   = .0001691
INCLINATION    = 53.1583
RA_OF_ASC_NODE = 164.2411
ARG_OF_PERICENTER = 26.9541
MEAN_ANOMALY   = 333.1569

EPHEMERIS_TYPE = 0
CLASSIFICATION_TYPE = U
NORAD_CAT_ID   = 68179
ELEMENT_SET_NO = 999
REV_AT_EPOCH   = 418
BSTAR          = .14039E-2
MEAN_MOTION_DOT = .286661E-2
MEAN_MOTION_DDOT = 0

CCSDS_OMM_VERS = 2.0
CREATION_DATE  = 
ORIGINATOR     = 

OBJECT_NAME    = STARLINK-37035
OBJECT_ID      = 2026-050P
CENTER_NAME    = EARTH
REF_FRAME      = TEME
TIME_SYSTEM    = UTC
MEAN_ELEMENT_THEORY = SGP/SGP4

EPOCH          = 2026-04-02T04:43:25.048416
MEAN_MOTION    = 15.80945932
ECCENTRICITY   = .0001343
INCLINATION    = 53.1585
RA_OF_ASC_NODE = 163.9194
ARG_OF_PERICENTER = 66.0680
MEAN_ANOMALY   = 294.0484

EPHEMERIS_TYPE = 0
CLASSIFICATION_TYPE = U
NORAD_CAT_ID   = 68180
ELEMENT_SET_NO = 999
REV_AT_EPOCH   = 419
BSTAR          = .10465E-2
MEAN_MOTION_DOT = .211692E-2
MEAN_MOTION_DDOT = 0

CCSDS_OMM_VERS = 2.0
CREATION_DATE  = 
ORIGINATOR     = 

OBJECT_NAME    = STARLINK-37032
OBJECT_ID      = 2026-050Q
CENTER_NAME    = EARTH
REF_FRAME      = TEME
TIME_SYSTEM    = UTC
MEAN_ELEMENT_THEORY = SGP/SGP4

EPOCH          = 2026-04-02T04:42:19.975392
MEAN_MOTION    = 15.80987275
ECCENTRICITY   = .0001232
INCLINATION    = 53.1586
RA_OF_ASC_NODE = 163.9145
ARG_OF_PERICENTER = 84.7612
MEAN_ANOMALY   = 275.3551

EPHEMERIS_TYPE = 0
CLASSIFICATION_TYPE = U
NORAD_CAT_ID   = 68181
ELEMENT_SET_NO = 999
REV_AT_EPOCH   = 419
BSTAR          = .16015E-2
MEAN_MOTION_DOT = .329487E-2
MEAN_MOTION_DDOT = 0

CCSDS_OMM_VERS = 2.0
CREATION_DATE  = 
ORIGINATOR     = 

OBJECT_NAME    = STARLINK-37082
OBJECT_ID      = 2026-050R
CENTER_NAME    = EARTH
REF_FRAME      = TEME
TIME_SYSTEM    = UTC
MEAN_ELEMENT_THEORY = SGP/SGP4

EPOCH          = 2026-04-02T03:10:13.123776
MEAN_MOTION    = 15.80913273
ECCENTRICITY   = .0001924
INCLINATION    = 53.1586
RA_OF_ASC_NODE = 164.2256
ARG_OF_PERICENTER = 21.3545
MEAN_ANOMALY   = 338.7557

EPHEMERIS_TYPE = 0
CLASSIFICATION_TYPE = U
NORAD_CAT_ID   = 68182
ELEMENT_SET_NO = 999
REV_AT_EPOCH   = 418
BSTAR          = .10448E-2
MEAN_MOTION_DOT = .211024E-2
MEAN_MOTION_DDOT = 0

CCSDS_OMM_VERS = 2.0
CREATION_DATE  = 
ORIGINATOR     = 

OBJECT_NAME    = STARLINK-37102
OBJECT_ID      = 2026-050S
CENTER_NAME    = EARTH
REF_FRAME      = TEME
TIME_SYSTEM    = UTC
MEAN_ELEMENT_THEORY = SGP/SGP4

EPOCH          = 2026-04-02T04:40:10.582752
MEAN_MOTION    = 15.80962222
ECCENTRICITY   = .0001335
INCLINATION    = 53.1587
RA_OF_ASC_NODE = 163.9043
ARG_OF_PERICENTER = 84.4862
MEAN_ANOMALY   = 275.6313

EPHEMERIS_TYPE = 0
CLASSIFICATION_TYPE = U
NORAD_CAT_ID   = 68183
ELEMENT_SET_NO = 999
REV_AT_EPOCH   = 419
BSTAR          = .12368E-2
MEAN_MOTION_DOT = .251695E-2
MEAN_MOTION_DDOT = 0

CCSDS_OMM_VERS = 2.0
CREATION_DATE  = 
ORIGINATOR     = 

OBJECT_NAME    = STARLINK-36964
OBJECT_ID      = 2026-050T
CENTER_NAME    = EARTH
REF_FRAME      = TEME
TIME_SYSTEM    = UTC
MEAN_ELEMENT_THEORY = SGP/SGP4

EPOCH          = 2026-04-02T04:39:05.787936
MEAN_MOTION    = 15.80953061
ECCENTRICITY   = .0001339
INCLINATION    = 53.1588
RA_OF_ASC_NODE = 163.8993
ARG_OF_PERICENTER = 63.8456
MEAN_ANOMALY   = 296.2704

EPHEMERIS_TYPE = 0
CLASSIFICATION_TYPE = U
NORAD_CAT_ID   = 68184
ELEMENT_SET_NO = 999
REV_AT_EPOCH   = 419
BSTAR          = .10237E-2
MEAN_MOTION_DOT = .207027E-2
MEAN_MOTION_DDOT = 0

CCSDS_OMM_VERS = 2.0
CREATION_DATE  = 
ORIGINATOR     = 

OBJECT_NAME    = STARLINK-37061
OBJECT_ID      = 2026-050U
CENTER_NAME    = EARTH
REF_FRAME      = TEME
TIME_SYSTEM    = UTC
MEAN_ELEMENT_THEORY = SGP/SGP4

EPOCH          = 2026-04-02T04:38:00.948192
MEAN_MOTION    = 15.80990736
ECCENTRICITY   = .0001023
INCLINATION    = 53.1587
RA_OF_ASC_NODE = 163.8943
ARG_OF_PERICENTER = 61.5237
MEAN_ANOMALY   = 298.5889

EPHEMERIS_TYPE = 0
CLASSIFICATION_TYPE = U
NORAD_CAT_ID   = 68185
ELEMENT_SET_NO = 999
REV_AT_EPOCH   = 419
BSTAR          = .14992E-2
MEAN_MOTION_DOT = .307637E-2
MEAN_MOTION_DDOT = 0

CCSDS_OMM_VERS = 2.0
CREATION_DATE  = 
ORIGINATOR     = 

OBJECT_NAME    = STARLINK-37079
OBJECT_ID      = 2026-050V
CENTER_NAME    = EARTH
REF_FRAME      = TEME
TIME_SYSTEM    = UTC
MEAN_ELEMENT_THEORY = SGP/SGP4

EPOCH          = 2026-04-02T04:36:56.239776
MEAN_MOTION    = 15.80973038
ECCENTRICITY   = .000134
INCLINATION    = 53.1588
RA_OF_ASC_NODE = 163.8896
ARG_OF_PERICENTER = 71.7596
MEAN_ANOMALY   = 288.3572

EPHEMERIS_TYPE = 0
CLASSIFICATION_TYPE = U
NORAD_CAT_ID   = 68186
ELEMENT_SET_NO = 999
REV_AT_EPOCH   = 419
BSTAR          = .11962E-2
MEAN_MOTION_DOT = .243286E-2
MEAN_MOTION_DDOT = 0

CCSDS_OMM_VERS = 2.0
CREATION_DATE  = 
ORIGINATOR     = 

OBJECT_NAME    = STARLINK-37006
OBJECT_ID      = 2026-050W
CENTER_NAME    = EARTH
REF_FRAME      = TEME
TIME_SYSTEM    = UTC
MEAN_ELEMENT_THEORY = SGP/SGP4

EPOCH          = 2026-04-02T04:35:51.299808
MEAN_MOTION    = 15.81001851
ECCENTRICITY   = .0001591
INCLINATION    = 53.1585
RA_OF_ASC_NODE = 163.8843
ARG_OF_PERICENTER = 73.5911
MEAN_ANOMALY   = 286.5286

EPHEMERIS_TYPE = 0
CLASSIFICATION_TYPE = U
NORAD_CAT_ID   = 68187
ELEMENT_SET_NO = 999
REV_AT_EPOCH   = 419
BSTAR          = .15664E-2
MEAN_MOTION_DOT = .322182E-2
MEAN_MOTION_DDOT = 0

CCSDS_OMM_VERS = 2.0
CREATION_DATE  = 
ORIGINATOR     = 

OBJECT_NAME    = STARLINK-36340
OBJECT_ID      = 2026-050X
CENTER_NAME    = EARTH
REF_FRAME      = TEME
TIME_SYSTEM    = UTC
MEAN_ELEMENT_THEORY = SGP/SGP4

EPOCH          = 2026-04-02T04:34:46.610400
MEAN_MOTION    = 15.80966231
ECCENTRICITY   = .0001152
INCLINATION    = 53.1588
RA_OF_ASC_NODE = 163.8793
ARG_OF_PERICENTER = 73.2876
MEAN_ANOMALY   = 286.8273

EPHEMERIS_TYPE = 0
CLASSIFICATION_TYPE = U
NORAD_CAT_ID   = 68188
ELEMENT_SET_NO = 999
REV_AT_EPOCH   = 409
BSTAR          = .12351E-2
MEAN_MOTION_DOT = .251377E-2
MEAN_MOTION_DDOT = 0

CCSDS_OMM_VERS = 2.0
CREATION_DATE  = 
ORIGINATOR     = 

OBJECT_NAME    = STARLINK-36305
OBJECT_ID      = 2026-050Y
CENTER_NAME    = EARTH
REF_FRAME      = TEME
TIME_SYSTEM    = UTC
MEAN_ELEMENT_THEORY = SGP/SGP4

EPOCH          = 2026-04-02T04:33:41.781888
MEAN_MOTION    = 15.80977969
ECCENTRICITY   = .0001325
INCLINATION    = 53.1586
RA_OF_ASC_NODE = 163.8743
ARG_OF_PERICENTER = 80.0215
MEAN_ANOMALY   = 280.0957

EPHEMERIS_TYPE = 0
CLASSIFICATION_TYPE = U
NORAD_CAT_ID   = 68189
ELEMENT_SET_NO = 999
REV_AT_EPOCH   = 409
BSTAR          = .13623E-2
MEAN_MOTION_DOT = .278357E-2
MEAN_MOTION_DDOT = 0

CCSDS_OMM_VERS = 2.0
CREATION_DATE  = 
ORIGINATOR     = 

OBJECT_NAME    = STARLINK-37071
OBJECT_ID      = 2026-050Z
CENTER_NAME    = EARTH
REF_FRAME      = TEME
TIME_SYSTEM    = UTC
MEAN_ELEMENT_THEORY = SGP/SGP4

EPOCH          = 2026-04-02T04:31:31.933920
MEAN_MOTION    = 15.80975856
ECCENTRICITY   = .0001193
INCLINATION    = 53.1588
RA_OF_ASC_NODE = 163.8640
ARG_OF_PERICENTER = 83.6426
MEAN_ANOMALY   = 276.4733

EPHEMERIS_TYPE = 0
CLASSIFICATION_TYPE = U
NORAD_CAT_ID   = 68190
ELEMENT_SET_NO = 999
REV_AT_EPOCH   = 419
BSTAR          = .11537E-2
MEAN_MOTION_DOT = .234399E-2
MEAN_MOTION_DDOT = 0

